O3B FM5                 
1 39188U 13031A   22347.37926506 -.00000017  00000+0  00000+0 0  9990
2 39188   0.0658   8.1926 0002846 258.7969  92.9804  5.00115417172918
O3B FM4                 
1 39189U 13031B   22347.23531258 -.00000017  00000+0  00000+0 0  9992
2 39189   0.0409 354.1684 0002784 272.2705  93.5317  5.00115941172916
O3B FM2                 
1 39190U 13031C   22347.32681945 -.00000017  00000+0  00000+0 0  9993
2 39190   0.0375 348.7105 0002777 276.8773  94.3828  5.00115180172982
O3B PFM                 
1 39191U 13031D   22347.35304313 -.00000017  00000+0  00000+0 0  9998
2 39191   0.0569   6.4685 0002757 255.9495  97.5530  5.00115864172542
O3B FM3                 
1 40079U 14038A   22347.40784964 -.00000017  00000+0  00000+0 0  9993
2 40079   0.0477 358.9063 0004433 235.4910 125.5638  5.00116722148920
O3B FM7                 
1 40080U 14038B   22347.35393489 -.00000017  00000+0  00000+0 0  9997
2 40080   0.0470 353.6401 0002847 308.3755  57.9591  5.00115625153751
O3B FM6                 
1 40081U 14038C   22347.18044347 -.00000017  00000+0  00000+0 0  9995
2 40081   0.0467 359.2214 0002824 263.3105  97.4385  5.00115380153686
O3B FM8                 
1 40082U 14038D   22346.43474789 -.00000019  00000+0  00000+0 0  9992
2 40082   0.0437 358.3817 0002678 261.1838 100.4068  5.00115749153760
O3B FM10                
1 40348U 14083A   22347.26045776 -.00000017  00000+0  00000+0 0  9997
2 40348   0.0520   7.9093 0002732 254.3527  97.7094  5.00115215145767
O3B FM11                
1 40349U 14083B   22347.27387335 -.00000017  00000+0  00000+0 0  9999
2 40349   0.0548   3.8947 0003007 271.7772  84.2962  5.00115467145788
O3B FM12                
1 40350U 14083C   22347.10121154 -.00000018  00000+0  00000+0 0  9999
2 40350   0.0539   3.8044 0002929 260.0155  96.1492  5.00115328145771
O3B FM9                 
1 40351U 14083D   22347.32784488 -.00000017  00000+0  00000+0 0  9998
2 40351   0.0558   3.2005 0002748 261.1082  95.6623  5.00116163145941
DIAMOND RED             
1 42783U 17036U   22347.37956700  .00014459  00000+0  48398-3 0  9993
2 42783  97.1781  22.1761 0011209  58.0040 302.2289 15.30996290304285
DIAMOND GREEN           
1 42785U 17036W   22347.37733952  .00014887  00000+0  49630-3 0  9992
2 42785  97.1783  22.2461 0010978  59.5576 300.6749 15.31122567304359
DIAMOND BLUE            
1 42786U 17036X   22347.37741172  .00014533  00000+0  48524-3 0  9995
2 42786  97.1782  22.2363 0011139  59.5358 300.6983 15.31077468304357
LEO VANTAGE 1           
1 43113U 18004C   22347.24522486  .00002208  00000+0  18064-3 0  9999
2 43113  99.2436  86.4294 0398636  14.0756 347.1171 14.54715921250222
O3B FM15                
1 43231U 18024A   22347.39378685 -.00000017  00000+0  00000+0 0  9992
2 43231   0.0503  11.3159 0003083 251.8712  96.7803  5.00116240 86908
O3B FM16                
1 43232U 18024B   22347.44720578 -.00000017  00000+0  00000+0 0  9991
2 43232   0.0497  16.0403 0003080 247.7997  96.1273  5.00116048 86823
O3B FM14                
1 43233U 18024C   22347.28705361 -.00000017  00000+0  00000+0 0  9997
2 43233   0.0489  17.5630 0003007 249.5647  92.8403  5.00115436 86822
O3B FM13                
1 43234U 18024D   22347.34058657 -.00000017  00000+0  00000+0 0  9994
2 43234   0.0597   8.3541 0003914 254.6857  96.9180  5.00115367 86942
O3B FM20                
1 44112U 19020A   22347.51363308 -.00000017  00000+0  00000+0 0  9998
2 44112   0.0512   7.5765 0003389 259.8649  92.5222  5.00115531 67442
O3B FM19                
1 44113U 19020B   22347.34059432 -.00000017  00000+0  00000+0 0  9990
2 44113   0.0736  13.3573 0002504 278.9610  67.6576  5.00115408 67315
O3B FM17                
1 44114U 19020C   22347.42102533 -.00000017  00000+0  00000+0 0  9991
2 44114   0.0324  15.2538 0003204 247.5267  97.1854  5.00115694 67403
O3B FM18                
1 44115U 19020D   22347.16762418 -.00000017  00000+0  00000+0 0  9997
2 44115   0.0517   7.5835 0002979 254.1443  98.2408  5.00115877 67501
SALSAT                  
1 46495U 20068K   22347.42203881  .00002749  00000+0  19524-3 0  9995
2 46495  97.7499 289.0420 0017427  36.0395 324.2003 15.05460539121104
